[
  {
    "CCSDS_OMM_VERS": "2.0",
    "COMMENT": "GENERATED VIA SPACE-TRACK.ORG API",
    "CREATION_DATE": "2021-12-03T17:32:05",
    "ORIGINATOR": "18 SPCS",
    "OBJECT_NAME": "THOR ABLESTAR R\/B",
    "OBJECT_ID": "1961-031C",
    "CENTER_NAME": "EARTH",
    "REF_FRAME": "TEME",
    "TIME_SYSTEM": "UTC",
    "MEAN_ELEMENT_THEORY": "SGP4",
    "EPOCH": "2021-12-03T12:31:03.727488",
    "MEAN_MOTION": "13.64890888",
    "ECCENTRICITY": "0.00990970",
    "INCLINATION": "32.4426",
    "RA_OF_ASC_NODE": "92.1785",
    "ARG_OF_PERICENTER": "303.6161",
    "MEAN_ANOMALY": "55.5037",
    "EPHEMERIS_TYPE": "0",
    "CLASSIFICATION_TYPE": "U",
    "NORAD_CAT_ID": "204",
    "ELEMENT_SET_NO": "999",
    "REV_AT_EPOCH": "99653",
    "BSTAR": "0.00000065090000",
    "MEAN_MOTION_DOT": "0.00000023",
    "MEAN_MOTION_DDOT": "0.0000000000000",
    "SEMIMAJOR_AXIS": "7396.108",
    "PERIOD": "105.503",
    "APOAPSIS": "1091.266",
    "PERIAPSIS": "944.679",
    "OBJECT_TYPE": "ROCKET BODY",
    "RCS_SIZE": "LARGE",
    "COUNTRY_CODE": "US",
    "LAUNCH_DATE": "1961-11-15",
    "SITE": "AFETR",
    "DECAY_DATE": null,
    "FILE": "3231740",
    "GP_ID": "190990843",
    "TLE_LINE0": "0 THOR ABLESTAR R\/B",
    "TLE_LINE1": "1 00204U 61031C   21337.52157092  .00000023  00000-0  65090-6 0  9995",
    "TLE_LINE2": "2 00204  32.4426  92.1785 0099097 303.6161  55.5037 13.64890888996537"
  },
  {
    "CCSDS_OMM_VERS": "2.0",
    "COMMENT": "GENERATED VIA SPACE-TRACK.ORG API",
    "CREATION_DATE": "2021-12-03T17:32:05",
    "ORIGINATOR": "18 SPCS",
    "OBJECT_NAME": "TRAAC",
    "OBJECT_ID": "1961-031B",
    "CENTER_NAME": "EARTH",
    "REF_FRAME": "TEME",
    "TIME_SYSTEM": "UTC",
    "MEAN_ELEMENT_THEORY": "SGP4",
    "EPOCH": "2021-12-03T13:05:42.156384",
    "MEAN_MOTION": "13.62423974",
    "ECCENTRICITY": "0.01019850",
    "INCLINATION": "32.4389",
    "RA_OF_ASC_NODE": "157.4954",
    "ARG_OF_PERICENTER": "17.0983",
    "MEAN_ANOMALY": "343.3038",
    "EPHEMERIS_TYPE": "0",
    "CLASSIFICATION_TYPE": "U",
    "NORAD_CAT_ID": "205",
    "ELEMENT_SET_NO": "999",
    "REV_AT_EPOCH": "99299",
    "BSTAR": "0.00002200400000",
    "MEAN_MOTION_DOT": "0.00000038",
    "MEAN_MOTION_DDOT": "0.0000000000000",
    "SEMIMAJOR_AXIS": "7405.033",
    "PERIOD": "105.694",
    "APOAPSIS": "1102.418",
    "PERIAPSIS": "951.378",
    "OBJECT_TYPE": "PAYLOAD",
    "RCS_SIZE": "MEDIUM",
    "COUNTRY_CODE": "US",
    "LAUNCH_DATE": "1961-11-15",
    "SITE": "AFETR",
    "DECAY_DATE": null,
    "FILE": "3231740",
    "GP_ID": "190990091",
    "TLE_LINE0": "0 TRAAC",
    "TLE_LINE1": "1 00205U 61031B   21337.54562681  .00000038  00000-0  22004-4 0  9994",
    "TLE_LINE2": "2 00205  32.4389 157.4954 0101985  17.0983 343.3038 13.62423974992998"
  },
  {
    "CCSDS_OMM_VERS": "2.0",
    "COMMENT": "GENERATED VIA SPACE-TRACK.ORG API",
    "CREATION_DATE": "2021-12-04T02:39:20",
    "ORIGINATOR": "18 SPCS",
    "OBJECT_NAME": "THOR ABLESTAR DEB",
    "OBJECT_ID": "1961-015BE",
    "CENTER_NAME": "EARTH",
    "REF_FRAME": "TEME",
    "TIME_SYSTEM": "UTC",
    "MEAN_ELEMENT_THEORY": "SGP4",
    "EPOCH": "2021-12-03T21:27:41.173920",
    "MEAN_MOTION": "13.86235713",
    "ECCENTRICITY": "0.00532350",
    "INCLINATION": "66.4568",
    "RA_OF_ASC_NODE": "123.2301",
    "ARG_OF_PERICENTER": "272.6917",
    "MEAN_ANOMALY": "86.8063",
    "EPHEMERIS_TYPE": "0",
    "CLASSIFICATION_TYPE": "U",
    "NORAD_CAT_ID": "210",
    "ELEMENT_SET_NO": "999",
    "REV_AT_EPOCH": "3561",
    "BSTAR": "0.00022574000000",
    "MEAN_MOTION_DOT": "0.00000185",
    "MEAN_MOTION_DDOT": "0.0000000000000",
    "SEMIMAJOR_AXIS": "7319.989",
    "PERIOD": "103.878",
    "APOAPSIS": "980.822",
    "PERIAPSIS": "902.886",
    "OBJECT_TYPE": "DEBRIS",
    "RCS_SIZE": "MEDIUM",
    "COUNTRY_CODE": "US",
    "LAUNCH_DATE": "1961-06-29",
    "SITE": "AFETR",
    "DECAY_DATE": null,
    "FILE": "3231910",
    "GP_ID": "191018279",
    "TLE_LINE0": "0 THOR ABLESTAR DEB",
    "TLE_LINE1": "1 00210U 61015BE  21337.89422655  .00000185  00000-0  22574-3 0  9990",
    "TLE_LINE2": "2 00210  66.4568 123.2301 0053235 272.6917  86.8063 13.86235713 35619"
  },
  {
    "CCSDS_OMM_VERS": "2.0",
    "COMMENT": "GENERATED VIA SPACE-TRACK.ORG API",
    "CREATION_DATE": "2021-12-04T02:39:20",
    "ORIGINATOR": "18 SPCS",
    "OBJECT_NAME": "THOR ABLESTAR DEB",
    "OBJECT_ID": "1961-015BK",
    "CENTER_NAME": "EARTH",
    "REF_FRAME": "TEME",
    "TIME_SYSTEM": "UTC",
    "MEAN_ELEMENT_THEORY": "SGP4",
    "EPOCH": "2021-12-03T18:08:23.082144",
    "MEAN_MOTION": "13.88668693",
    "ECCENTRICITY": "0.00622910",
    "INCLINATION": "66.8918",
    "RA_OF_ASC_NODE": "17.7725",
    "ARG_OF_PERICENTER": "63.7611",
    "MEAN_ANOMALY": "296.9852",
    "EPHEMERIS_TYPE": "0",
    "CLASSIFICATION_TYPE": "U",
    "NORAD_CAT_ID": "223",
    "ELEMENT_SET_NO": "999",
    "REV_AT_EPOCH": "6085",
    "BSTAR": "0.00003729100000",
    "MEAN_MOTION_DOT": "-0.00000030",
    "MEAN_MOTION_DDOT": "0.0000000000000",
    "SEMIMAJOR_AXIS": "7311.437",
    "PERIOD": "103.696",
    "APOAPSIS": "978.846",
    "PERIAPSIS": "887.758",
    "OBJECT_TYPE": "DEBRIS",
    "RCS_SIZE": "MEDIUM",
    "COUNTRY_CODE": "US",
    "LAUNCH_DATE": "1961-06-29",
    "SITE": "AFETR",
    "DECAY_DATE": null,
    "FILE": "3231910",
    "GP_ID": "191018030",
    "TLE_LINE0": "0 THOR ABLESTAR DEB",
    "TLE_LINE1": "1 00223U 61015BK  21337.75582271 -.00000030  00000-0  37291-4 0  9993",
    "TLE_LINE2": "2 00223  66.8918  17.7725 0062291  63.7611 296.9852 13.88668693 60858"
  },
  {
    "CCSDS_OMM_VERS": "2.0",
    "COMMENT": "GENERATED VIA SPACE-TRACK.ORG API",
    "CREATION_DATE": "2021-12-03T17:32:05",
    "ORIGINATOR": "18 SPCS",
    "OBJECT_NAME": "THOR ABLESTAR DEB",
    "OBJECT_ID": "1961-015BL",
    "CENTER_NAME": "EARTH",
    "REF_FRAME": "TEME",
    "TIME_SYSTEM": "UTC",
    "MEAN_ELEMENT_THEORY": "SGP4",
    "EPOCH": "2021-12-03T14:18:32.232096",
    "MEAN_MOTION": "14.08266367",
    "ECCENTRICITY": "0.00614440",
    "INCLINATION": "66.7379",
    "RA_OF_ASC_NODE": "19.5736",
    "ARG_OF_PERICENTER": "125.7106",
    "MEAN_ANOMALY": "313.2505",
    "EPHEMERIS_TYPE": "0",
    "CLASSIFICATION_TYPE": "U",
    "NORAD_CAT_ID": "224",
    "ELEMENT_SET_NO": "999",
    "REV_AT_EPOCH": "7897",
    "BSTAR": "0.00033028000000",
    "MEAN_MOTION_DOT": "0.00000494",
    "MEAN_MOTION_DDOT": "0.0000000000000",
    "SEMIMAJOR_AXIS": "7243.447",
    "PERIOD": "102.253",
    "APOAPSIS": "909.819",
    "PERIAPSIS": "820.806",
    "OBJECT_TYPE": "DEBRIS",
    "RCS_SIZE": "MEDIUM",
    "COUNTRY_CODE": "US",
    "LAUNCH_DATE": "1961-06-29",
    "SITE": "AFETR",
    "DECAY_DATE": null,
    "FILE": "3231740",
    "GP_ID": "190991343",
    "TLE_LINE0": "0 THOR ABLESTAR DEB",
    "TLE_LINE1": "1 00224U 61015BL  21337.59620639  .00000494  00000-0  33028-3 0  9993",
    "TLE_LINE2": "2 00224  66.7379  19.5736 0061444 125.7106 313.2505 14.08266367 78973"
  },
  {
    "CCSDS_OMM_VERS": "2.0",
    "COMMENT": "GENERATED VIA SPACE-TRACK.ORG API",
    "CREATION_DATE": "2021-12-03T17:32:05",
    "ORIGINATOR": "18 SPCS",
    "OBJECT_NAME": "THOR ABLESTAR DEB",
    "OBJECT_ID": "1961-015BM",
    "CENTER_NAME": "EARTH",
    "REF_FRAME": "TEME",
    "TIME_SYSTEM": "UTC",
    "MEAN_ELEMENT_THEORY": "SGP4",
    "EPOCH": "2021-12-03T05:51:07.124544",
    "MEAN_MOTION": "14.31748424",
    "ECCENTRICITY": "0.01073730",
    "INCLINATION": "66.8004",
    "RA_OF_ASC_NODE": "277.5197",
    "ARG_OF_PERICENTER": "16.5858",
    "MEAN_ANOMALY": "343.8709",
    "EPHEMERIS_TYPE": "0",
    "CLASSIFICATION_TYPE": "U",
    "NORAD_CAT_ID": "225",
    "ELEMENT_SET_NO": "999",
    "REV_AT_EPOCH": "12005",
    "BSTAR": "0.00015966000000",
    "MEAN_MOTION_DOT": "0.00000368",
    "MEAN_MOTION_DDOT": "0.0000000000000",
    "SEMIMAJOR_AXIS": "7164.029",
    "PERIOD": "100.576",
    "APOAPSIS": "862.817",
    "PERIAPSIS": "708.972",
    "OBJECT_TYPE": "DEBRIS",
    "RCS_SIZE": "SMALL",
    "COUNTRY_CODE": "US",
    "LAUNCH_DATE": "1961-06-29",
    "SITE": "AFETR",
    "DECAY_DATE": null,
    "FILE": "3231740",
    "GP_ID": "190989592",
    "TLE_LINE0": "0 THOR ABLESTAR DEB",
    "TLE_LINE1": "1 00225U 61015BM  21337.24383246  .00000368  00000-0  15966-3 0  9997",
    "TLE_LINE2": "2 00225  66.8004 277.5197 0107373  16.5858 343.8709 14.31748424120057"
  },
  {
    "CCSDS_OMM_VERS": "2.0",
    "COMMENT": "GENERATED VIA SPACE-TRACK.ORG API",
    "CREATION_DATE": "2021-12-04T02:39:20",
    "ORIGINATOR": "18 SPCS",
    "OBJECT_NAME": "TIROS 4",
    "OBJECT_ID": "1962-002A",
    "CENTER_NAME": "EARTH",
    "REF_FRAME": "TEME",
    "TIME_SYSTEM": "UTC",
    "MEAN_ELEMENT_THEORY": "SGP4",
    "EPOCH": "2021-12-03T16:35:14.875296",
    "MEAN_MOTION": "14.45733159",
    "ECCENTRICITY": "0.00786750",
    "INCLINATION": "48.2973",
    "RA_OF_ASC_NODE": "299.8247",
    "ARG_OF_PERICENTER": "273.5417",
    "MEAN_ANOMALY": "85.6486",
    "EPHEMERIS_TYPE": "0",
    "CLASSIFICATION_TYPE": "U",
    "NORAD_CAT_ID": "226",
    "ELEMENT_SET_NO": "999",
    "REV_AT_EPOCH": "12866",
    "BSTAR": "0.00001906700000",
    "MEAN_MOTION_DOT": "-0.00000102",
    "MEAN_MOTION_DDOT": "0.0000000000000",
    "SEMIMAJOR_AXIS": "7117.756",
    "PERIOD": "99.603",
    "APOAPSIS": "795.620",
    "PERIAPSIS": "683.622",
    "OBJECT_TYPE": "PAYLOAD",
    "RCS_SIZE": "MEDIUM",
    "COUNTRY_CODE": "US",
    "LAUNCH_DATE": "1962-02-08",
    "SITE": "AFETR",
    "DECAY_DATE": null,
    "FILE": "3231910",
    "GP_ID": "191017780",
    "TLE_LINE0": "0 TIROS 4",
    "TLE_LINE1": "1 00226U 62002A   21337.69114439 -.00000102  00000-0  19067-4 0  9994",
    "TLE_LINE2": "2 00226  48.2973 299.8247 0078675 273.5417  85.6486 14.45733159128660"
  }
]
